{
"type": "FeatureCollection",
"name": "bounding_boxes",
"crs": { "type": "name", "properties": { "name": "urn:ogc:def:crs:EPSG::3857" } },
"features": [
{ "type": "Feature", "properties": { "id": 1 }, "geometry": { "type": "Point", "coordinates": [ 1621672.42349151475355, -2113562.732073730323464 ] } },
{ "type": "Feature", "properties": { "id": 2 }, "geometry": { "type": "Point", "coordinates": [ 1666288.060472457204014, -2109777.290249198675156 ] } },
{ "type": "Feature", "properties": { "id": 3 }, "geometry": { "type": "Point", "coordinates": [ 1730040.028404398588464, -2139016.144617985002697 ] } },
{ "type": "Feature", "properties": { "id": 4 }, "geometry": { "type": "Point", "coordinates": [ 1726301.961208389140666, -2151766.538204373326153 ] } },
{ "type": "Feature", "properties": { "id": 5 }, "geometry": { "type": "Point", "coordinates": [ 1701569.2700347926002, -2151152.061405029147863 ] } },
{ "type": "Feature", "properties": { "id": 5 }, "geometry": { "type": "Point", "coordinates": [ 1666236.854072511428967, -2132103.280625364277512 ] } },
{ "type": "Feature", "properties": { "id": 6 }, "geometry": { "type": "Point", "coordinates": [ 1651862.13774500018917, -2133023.486338668968529 ] } },
{ "type": "Feature", "properties": { "id": 101 }, "geometry": { "type": "Point", "coordinates": [ 1621482.460520289139822, -2142703.00541404960677 ] } },
{ "type": "Feature", "properties": { "id": 102 }, "geometry": { "type": "Point", "coordinates": [ 1598849.231744451448321, -2157348.035798415075988 ] } },
{ "type": "Feature", "properties": { "id": 103 }, "geometry": { "type": "Point", "coordinates": [ 1605198.825337672838941, -2183770.538170207757503 ] } },
{ "type": "Feature", "properties": { "id": 104 }, "geometry": { "type": "Point", "coordinates": [ 1612879.78532947297208, -2192885.277360477484763 ] } },
{ "type": "Feature", "properties": { "id": 105 }, "geometry": { "type": "Point", "coordinates": [ 1608783.273333846125752, -2204662.749347904231399 ] } },
{ "type": "Feature", "properties": { "id": 106 }, "geometry": { "type": "Point", "coordinates": [ 1623428.3037182118278, -2204560.336548013612628 ] } },
{ "type": "Feature", "properties": { "id": 107 }, "geometry": { "type": "Point", "coordinates": [ 1624657.257316899951547, -2193499.754159821663052 ] } },
{ "type": "Feature", "properties": { "id": 108 }, "geometry": { "type": "Point", "coordinates": [ 1618410.076523569179699, -2193397.341359930578619 ] } },
{ "type": "Feature", "properties": { "id": 109 }, "geometry": { "type": "Point", "coordinates": [ 1618512.48932345979847, -2184077.776569880079478 ] } },
{ "type": "Feature", "properties": { "id": 109 }, "geometry": { "type": "Point", "coordinates": [ 1647597.724492409965023, -2183463.299770535901189 ] } },
{ "type": "Feature", "properties": { "id": 8 }, "geometry": { "type": "Point", "coordinates": [ 1635397.132048291619867, -2154458.183458643034101 ] } },
{ "type": "Feature", "properties": { "id": 9 }, "geometry": { "type": "Point", "coordinates": [ 1658619.989166356623173, -2176566.343435041140765 ] } },
{ "type": "Feature", "properties": { "id": 10 }, "geometry": { "type": "Point", "coordinates": [ 1649702.412033019820228, -2181210.914858654141426 ] } },
{ "type": "Feature", "properties": { "id": 11 }, "geometry": { "type": "Point", "coordinates": [ 1623321.24634689767845, -2141546.274900998920202 ] } },
{ "type": "Feature", "properties": { "id": 12 }, "geometry": { "type": "Point", "coordinates": [ 1631681.474909401265904, -2133557.612052384763956 ] } },
{ "type": "Feature", "properties": { "id": 13 }, "geometry": { "type": "Point", "coordinates": [ 1625364.85777328745462, -2127984.126344048883766 ] } },
{ "type": "Feature", "properties": { "id": 201 }, "geometry": { "type": "Point", "coordinates": [ 1762751.280483760638162, -2135926.343478425871581 ] } },
{ "type": "Feature", "properties": { "id": 202 }, "geometry": { "type": "Point", "coordinates": [ 1772597.771901820320636, -2170017.497727745678276 ] } },
{ "type": "Feature", "properties": { "id": 203 }, "geometry": { "type": "Point", "coordinates": [ 1709710.274826099630445, -2183393.863427751231939 ] } },
{ "type": "Feature", "properties": { "id": 204 }, "geometry": { "type": "Point", "coordinates": [ 1705344.377687903353944, -2176798.572006220929325 ] } },
{ "type": "Feature", "properties": { "id": 205 }, "geometry": { "type": "Point", "coordinates": [ 1669488.286297610960901, -2180049.772002749610692 ] } },
{ "type": "Feature", "properties": { "id": 206 }, "geometry": { "type": "Point", "coordinates": [ 1684165.131996228126809, -2171875.326297190506011 ] } },
{ "type": "Feature", "properties": { "id": 207 }, "geometry": { "type": "Point", "coordinates": [ 1690574.64056081417948, -2163143.53202079795301 ] } },
{ "type": "Feature", "properties": { "id": 208 }, "geometry": { "type": "Point", "coordinates": [ 1702186.069119846681133, -2158498.960597184952348 ] } },
{ "type": "Feature", "properties": { "id": 209 }, "geometry": { "type": "Point", "coordinates": [ 1725687.60052332887426, -2153947.280602043960243 ] } },
{ "type": "Feature", "properties": { "id": 210 }, "geometry": { "type": "Point", "coordinates": [ 1734419.394799721194431, -2146051.509181901812553 ] } },
{ "type": "Feature", "properties": { "id": 211 }, "geometry": { "type": "Point", "coordinates": [ 1751325.634781672619283, -2152182.343461071141064 ] } },
{ "type": "Feature", "properties": { "id": 212 }, "geometry": { "type": "Point", "coordinates": [ 1756063.097633758094162, -2149116.926321486476809 ] } },
{ "type": "Feature", "properties": { "id": 213 }, "geometry": { "type": "Point", "coordinates": [ 1752626.114780284231529, -2135276.103479119949043 ] } },
{ "type": "Feature", "properties": { "id": 1001 }, "geometry": { "type": "Point", "coordinates": [ 1608806.960648106178269, -2204317.657691128086299 ] } },
{ "type": "Feature", "properties": { "id": 1002 }, "geometry": { "type": "Point", "coordinates": [ 1623994.70920332078822, -2204549.88626230834052 ] } },
{ "type": "Feature", "properties": { "id": 1003 }, "geometry": { "type": "Point", "coordinates": [ 1624575.280631272355095, -2193565.474845463875681 ] } },
{ "type": "Feature", "properties": { "id": 1004 }, "geometry": { "type": "Point", "coordinates": [ 1618467.669209221377969, -2193565.47484546341002 ] } },
{ "type": "Feature", "properties": { "id": 1005 }, "geometry": { "type": "Point", "coordinates": [ 1618398.000637867487967, -2184044.103427057154477 ] } },
{ "type": "Feature", "properties": { "id": 1006 }, "geometry": { "type": "Point", "coordinates": [ 1660710.04630698217079, -2182999.074856744147837 ] } },
{ "type": "Feature", "properties": { "id": 1007 }, "geometry": { "type": "Point", "coordinates": [ 1672971.71486532012932, -2179980.103431395255029 ] } },
{ "type": "Feature", "properties": { "id": 1008 }, "geometry": { "type": "Point", "coordinates": [ 1691271.326274355407804, -2181698.594858132302761 ] } },
{ "type": "Feature", "properties": { "id": 1009 }, "geometry": { "type": "Point", "coordinates": [ 1704508.354831652948633, -2177518.480576880276203 ] } },
{ "type": "Feature", "properties": { "id": 1010 }, "geometry": { "type": "Point", "coordinates": [ 1704926.366259778151289, -2183695.760570285376161 ] } },
{ "type": "Feature", "properties": { "id": 1011 }, "geometry": { "type": "Point", "coordinates": [ 1745380.583359447773546, -2186946.96056681452319 ] } },
{ "type": "Feature", "properties": { "id": 1013 }, "geometry": { "type": "Point", "coordinates": [ 1847561.154678934719414, -2206732.834831406362355 ] } },
{ "type": "Feature", "properties": { "id": 1014 }, "geometry": { "type": "Point", "coordinates": [ 1858522.343238661298528, -2212213.429111269768327 ] } },
{ "type": "Feature", "properties": { "id": 1015 }, "geometry": { "type": "Point", "coordinates": [ 1891870.366060202941298, -2195307.189129318576306 ] } },
{ "type": "Feature", "properties": { "id": 1016 }, "geometry": { "type": "Point", "coordinates": [ 1906361.428901875158772, -2176264.446292504668236 ] } },
{ "type": "Feature", "properties": { "id": 1017 }, "geometry": { "type": "Point", "coordinates": [ 1896143.371769926743582, -2126010.183489012066275 ] } },
{ "type": "Feature", "properties": { "id": 1018 }, "geometry": { "type": "Point", "coordinates": [ 1896143.371769926743582, -2110961.77207650616765 ] } },
{ "type": "Feature", "properties": { "id": 1019 }, "geometry": { "type": "Point", "coordinates": [ 1908590.823185209650546, -2110404.423505672253668 ] } },
{ "type": "Feature", "properties": { "id": 1020 }, "geometry": { "type": "Point", "coordinates": [ 1905153.840331735787913, -2099257.452089001424611 ] } },
{ "type": "Feature", "properties": { "id": 1021 }, "geometry": { "type": "Point", "coordinates": [ 1897722.526053955079988, -2096192.034949416527525 ] } },
{ "type": "Feature", "properties": { "id": 1023 }, "geometry": { "type": "Point", "coordinates": [ 1743894.320503891445696, -2095541.794950110837817 ] } },
{ "type": "Feature", "properties": { "id": 1024 }, "geometry": { "type": "Point", "coordinates": [ 1740178.663365001091734, -2117092.6063556750305 ] } },
{ "type": "Feature", "properties": { "id": 1025 }, "geometry": { "type": "Point", "coordinates": [ 1703393.657689985819161, -2108918.160650115925819 ] } },
{ "type": "Feature", "properties": { "id": 1026 }, "geometry": { "type": "Point", "coordinates": [ 1622206.549205230083317, -2113934.297787617892027 ] } },
{ "type": "Feature", "properties": { "id": 1027 }, "geometry": { "type": "Point", "coordinates": [ 1624993.292059398023412, -2128239.577772346325219 ] } },
{ "type": "Feature", "properties": { "id": 1028 }, "geometry": { "type": "Point", "coordinates": [ 1631681.474909400800243, -2133998.846337626688182 ] } },
{ "type": "Feature", "properties": { "id": 1029 }, "geometry": { "type": "Point", "coordinates": [ 1598240.560659386916086, -2157593.269169580657035 ] } },
{ "type": "Feature", "properties": { "id": 1030 }, "geometry": { "type": "Point", "coordinates": [ 1604185.612081611528993, -2182488.172000146470964 ] } },
{ "type": "Feature", "properties": { "id": 1031 }, "geometry": { "type": "Point", "coordinates": [ 1612731.623501059599221, -2192613.337703623343259 ] } },
{ "type": "Feature", "properties": { "id": 1032 }, "geometry": { "type": "Point", "coordinates": [ 1609759.097789947409183, -2198372.606268903706223 ] } },
{ "type": "Feature", "properties": { "id": 2001 }, "geometry": { "type": "Point", "coordinates": [ 1752773.4638086988125, -2098122.318833068478853 ] } },
{ "type": "Feature", "properties": { "id": 2002 }, "geometry": { "type": "Point", "coordinates": [ 1745604.567816352006048, -2104267.086826508399099 ] } },
{ "type": "Feature", "properties": { "id": 2003 }, "geometry": { "type": "Point", "coordinates": [ 1755743.435005528153852, -2117785.576412076596171 ] } },
{ "type": "Feature", "properties": { "id": 2004 }, "geometry": { "type": "Point", "coordinates": [ 1759020.644602029584348, -2111538.395618745591491 ] } },
{ "type": "Feature", "properties": { "id": 2101 }, "geometry": { "type": "Point", "coordinates": [ 1859487.60129477432929, -2096483.714034817647189 ] } },
{ "type": "Feature", "properties": { "id": 2102 }, "geometry": { "type": "Point", "coordinates": [ 1773563.262186504201964, -2121779.675607812590897 ] } },
{ "type": "Feature", "properties": { "id": 2103 }, "geometry": { "type": "Point", "coordinates": [ 1763526.807797218672931, -2139394.677189007401466 ] } },
{ "type": "Feature", "properties": { "id": 2104 }, "geometry": { "type": "Point", "coordinates": [ 1775611.518184317508712, -2170528.168355770409107 ] } },
{ "type": "Feature", "properties": { "id": 2105 }, "geometry": { "type": "Point", "coordinates": [ 1818420.068538616644219, -2153732.46917370101437 ] } },
{ "type": "Feature", "properties": { "id": 2106 }, "geometry": { "type": "Point", "coordinates": [ 1855493.502099038334563, -2147382.875580479390919 ] } },
{ "type": "Feature", "properties": { "id": 2107 }, "geometry": { "type": "Point", "coordinates": [ 1861843.095692259725183, -2136629.531591959297657 ] } },
{ "type": "Feature", "properties": { "id": 2108 }, "geometry": { "type": "Point", "coordinates": [ 1881403.94047137722373, -2136015.054792615585029 ] } },
{ "type": "Feature", "properties": { "id": 2201 }, "geometry": { "type": "Point", "coordinates": [ 1751339.68461022968404, -2137141.595591412857175 ] } },
{ "type": "Feature", "properties": { "id": 2202 }, "geometry": { "type": "Point", "coordinates": [ 1754412.068606949644163, -2149226.305978511925787 ] } },
{ "type": "Feature", "properties": { "id": 2203 }, "geometry": { "type": "Point", "coordinates": [ 1744068.375817992258817, -2147485.288380370475352 ] } },
{ "type": "Feature", "properties": { "id": 2204 }, "geometry": { "type": "Point", "coordinates": [ 1737821.195024661486968, -2147280.462780589237809 ] } },
{ "type": "Feature", "properties": { "id": 2205 }, "geometry": { "type": "Point", "coordinates": [ 1734441.572628269437701, -2141647.758786602411419 ] } },
{ "type": "Feature", "properties": { "id": 2206 }, "geometry": { "type": "Point", "coordinates": [ 1742327.358219850808382, -2144720.142783322371542 ] } },
{ "type": "Feature", "properties": { "id": 2301 }, "geometry": { "type": "Point", "coordinates": [ 1749905.90541176032275, -2119270.562010491732508 ] } },
{ "type": "Feature", "properties": { "id": 2302 }, "geometry": { "type": "Point", "coordinates": [ 1754053.623807332245633, -2119014.530010764952749 ] } },
{ "type": "Feature", "properties": { "id": 2303 }, "geometry": { "type": "Point", "coordinates": [ 1757945.310203177621588, -2124135.170005298219621 ] } },
{ "type": "Feature", "properties": { "id": 2304 }, "geometry": { "type": "Point", "coordinates": [ 1754616.894206731114537, -2125568.949203767813742 ] } }
]
}
