{
"type": "FeatureCollection",
"name": "normal_cameras",
"crs": { "type": "name", "properties": { "name": "urn:ogc:def:crs:EPSG::3857" } },
"features": [
{ "type": "Feature", "properties": { "camera_id": 1 }, "geometry": { "type": "Point", "coordinates": [ 1609473.875816660467535, -2165019.413791975006461 ] } },
{ "type": "Feature", "properties": { "camera_id": 2 }, "geometry": { "type": "Point", "coordinates": [ 1609473.875816660467535, -2165019.413791975006461 ] } },
{ "type": "Feature", "properties": { "camera_id": 3 }, "geometry": { "type": "Point", "coordinates": [ 1612473.875816660467535, -2162019.413791975006461 ] } },
{ "type": "Feature", "properties": { "camera_id": 4 }, "geometry": { "type": "Point", "coordinates": [ 1612473.875816660467535, -2162019.413791975006461 ] } },
{ "type": "Feature", "properties": { "camera_id": 5 }, "geometry": { "type": "Point", "coordinates": [ 1610473.875816660467535, -2162019.413791975006461 ] } },
{ "type": "Feature", "properties": { "camera_id": 6 }, "geometry": { "type": "Point", "coordinates": [ 1610473.875816660467535, -2162019.413791975006461 ] } },
{ "type": "Feature", "properties": { "camera_id": 7 }, "geometry": { "type": "Point", "coordinates": [ 1611473.875816660467535, -2165019.413791975006461 ] } },
{ "type": "Feature", "properties": { "camera_id": 8 }, "geometry": { "type": "Point", "coordinates": [ 1611473.875816660467535, -2165019.413791975006461 ] } },
{ "type": "Feature", "properties": { "camera_id": 9 }, "geometry": { "type": "Point", "coordinates": [ 1612473.875816660467535, -2165019.413791975006461 ] } },
{ "type": "Feature", "properties": { "camera_id": 10 }, "geometry": { "type": "Point", "coordinates": [ 1612473.875816660467535, -2165019.413791975006461 ] } },
{ "type": "Feature", "properties": { "camera_id": 11 }, "geometry": { "type": "Point", "coordinates": [ 1608473.875816660467535, -2163019.413791975006461 ] } },
{ "type": "Feature", "properties": { "camera_id": 12 }, "geometry": { "type": "Point", "coordinates": [ 1608473.875816660467535, -2163019.413791975006461 ] } },
{ "type": "Feature", "properties": { "camera_id": 13 }, "geometry": { "type": "Point", "coordinates": [ 1609473.875816660467535, -2162019.413791975006461 ] } },
{ "type": "Feature", "properties": { "camera_id": 14 }, "geometry": { "type": "Point", "coordinates": [ 1609473.875816660467535, -2162019.413791975006461 ] } },
{ "type": "Feature", "properties": { "camera_id": 15 }, "geometry": { "type": "Point", "coordinates": [ 1613473.875816660467535, -2162019.413791975006461 ] } },
{ "type": "Feature", "properties": { "camera_id": 16 }, "geometry": { "type": "Point", "coordinates": [ 1613473.875816660467535, -2162019.413791975006461 ] } },
{ "type": "Feature", "properties": { "camera_id": 17 }, "geometry": { "type": "Point", "coordinates": [ 1613473.875816660467535, -2165019.413791975006461 ] } },
{ "type": "Feature", "properties": { "camera_id": 18 }, "geometry": { "type": "Point", "coordinates": [ 1613473.875816660467535, -2165019.413791975006461 ] } },
{ "type": "Feature", "properties": { "camera_id": 19 }, "geometry": { "type": "Point", "coordinates": [ 1614473.875816660467535, -2163019.413791975006461 ] } },
{ "type": "Feature", "properties": { "camera_id": 20 }, "geometry": { "type": "Point", "coordinates": [ 1614473.875816660467535, -2163019.413791975006461 ] } },
{ "type": "Feature", "properties": { "camera_id": 21 }, "geometry": { "type": "Point", "coordinates": [ 1608473.875816660467535, -2165019.413791975006461 ] } },
{ "type": "Feature", "properties": { "camera_id": 22 }, "geometry": { "type": "Point", "coordinates": [ 1608473.875816660467535, -2165019.413791975006461 ] } },
{ "type": "Feature", "properties": { "camera_id": 23 }, "geometry": { "type": "Point", "coordinates": [ 1614473.875816660467535, -2164019.413791975006461 ] } },
{ "type": "Feature", "properties": { "camera_id": 24 }, "geometry": { "type": "Point", "coordinates": [ 1614473.875816660467535, -2164019.413791975006461 ] } },
{ "type": "Feature", "properties": { "camera_id": 25 }, "geometry": { "type": "Point", "coordinates": [ 1608473.875816660467535, -2162019.413791975006461 ] } },
{ "type": "Feature", "properties": { "camera_id": 26 }, "geometry": { "type": "Point", "coordinates": [ 1608473.875816660467535, -2162019.413791975006461 ] } },
{ "type": "Feature", "properties": { "camera_id": 27 }, "geometry": { "type": "Point", "coordinates": [ 1610473.875816660467535, -2166019.413791975006461 ] } },
{ "type": "Feature", "properties": { "camera_id": 28 }, "geometry": { "type": "Point", "coordinates": [ 1610473.875816660467535, -2166019.413791975006461 ] } },
{ "type": "Feature", "properties": { "camera_id": 29 }, "geometry": { "type": "Point", "coordinates": [ 1611473.875816660467535, -2166019.413791975006461 ] } },
{ "type": "Feature", "properties": { "camera_id": 30 }, "geometry": { "type": "Point", "coordinates": [ 1611473.875816660467535, -2166019.413791975006461 ] } },
{ "type": "Feature", "properties": { "camera_id": 31 }, "geometry": { "type": "Point", "coordinates": [ 1611473.875816660467535, -2161019.413791975006461 ] } },
{ "type": "Feature", "properties": { "camera_id": 32 }, "geometry": { "type": "Point", "coordinates": [ 1611473.875816660467535, -2161019.413791975006461 ] } },
{ "type": "Feature", "properties": { "camera_id": 33 }, "geometry": { "type": "Point", "coordinates": [ 1609473.875816660467535, -2166019.413791975006461 ] } },
{ "type": "Feature", "properties": { "camera_id": 34 }, "geometry": { "type": "Point", "coordinates": [ 1609473.875816660467535, -2166019.413791975006461 ] } },
{ "type": "Feature", "properties": { "camera_id": 35 }, "geometry": { "type": "Point", "coordinates": [ 1612473.875816660467535, -2166019.413791975006461 ] } },
{ "type": "Feature", "properties": { "camera_id": 36 }, "geometry": { "type": "Point", "coordinates": [ 1612473.875816660467535, -2166019.413791975006461 ] } },
{ "type": "Feature", "properties": { "camera_id": 37 }, "geometry": { "type": "Point", "coordinates": [ 1610473.875816660467535, -2161019.413791975006461 ] } },
{ "type": "Feature", "properties": { "camera_id": 38 }, "geometry": { "type": "Point", "coordinates": [ 1610473.875816660467535, -2161019.413791975006461 ] } },
{ "type": "Feature", "properties": { "camera_id": 39 }, "geometry": { "type": "Point", "coordinates": [ 1612473.875816660467535, -2161019.413791975006461 ] } },
{ "type": "Feature", "properties": { "camera_id": 40 }, "geometry": { "type": "Point", "coordinates": [ 1612473.875816660467535, -2161019.413791975006461 ] } },
{ "type": "Feature", "properties": { "camera_id": 41 }, "geometry": { "type": "Point", "coordinates": [ 1609473.875816660467535, -2161019.413791975006461 ] } },
{ "type": "Feature", "properties": { "camera_id": 42 }, "geometry": { "type": "Point", "coordinates": [ 1609473.875816660467535, -2161019.413791975006461 ] } },
{ "type": "Feature", "properties": { "camera_id": 43 }, "geometry": { "type": "Point", "coordinates": [ 1607473.875816660467535, -2164019.413791975006461 ] } },
{ "type": "Feature", "properties": { "camera_id": 44 }, "geometry": { "type": "Point", "coordinates": [ 1607473.875816660467535, -2164019.413791975006461 ] } },
{ "type": "Feature", "properties": { "camera_id": 45 }, "geometry": { "type": "Point", "coordinates": [ 1614473.875816660467535, -2165019.413791975006461 ] } },
{ "type": "Feature", "properties": { "camera_id": 46 }, "geometry": { "type": "Point", "coordinates": [ 1614473.875816660467535, -2165019.413791975006461 ] } },
{ "type": "Feature", "properties": { "camera_id": 47 }, "geometry": { "type": "Point", "coordinates": [ 1614473.875816660467535, -2162019.413791975006461 ] } },
{ "type": "Feature", "properties": { "camera_id": 48 }, "geometry": { "type": "Point", "coordinates": [ 1614473.875816660467535, -2162019.413791975006461 ] } },
{ "type": "Feature", "properties": { "camera_id": 49 }, "geometry": { "type": "Point", "coordinates": [ 1607473.875816660467535, -2163019.413791975006461 ] } },
{ "type": "Feature", "properties": { "camera_id": 50 }, "geometry": { "type": "Point", "coordinates": [ 1607473.875816660467535, -2163019.413791975006461 ] } },
{ "type": "Feature", "properties": { "camera_id": 51 }, "geometry": { "type": "Point", "coordinates": [ 1613473.875816660467535, -2166019.413791975006461 ] } },
{ "type": "Feature", "properties": { "camera_id": 52 }, "geometry": { "type": "Point", "coordinates": [ 1613473.875816660467535, -2166019.413791975006461 ] } },
{ "type": "Feature", "properties": { "camera_id": 53 }, "geometry": { "type": "Point", "coordinates": [ 1613473.875816660467535, -2161019.413791975006461 ] } },
{ "type": "Feature", "properties": { "camera_id": 54 }, "geometry": { "type": "Point", "coordinates": [ 1613473.875816660467535, -2161019.413791975006461 ] } },
{ "type": "Feature", "properties": { "camera_id": 55 }, "geometry": { "type": "Point", "coordinates": [ 1608473.875816660467535, -2166019.413791975006461 ] } },
{ "type": "Feature", "properties": { "camera_id": 56 }, "geometry": { "type": "Point", "coordinates": [ 1608473.875816660467535, -2166019.413791975006461 ] } },
{ "type": "Feature", "properties": { "camera_id": 57 }, "geometry": { "type": "Point", "coordinates": [ 1607473.875816660467535, -2162019.413791975006461 ] } },
{ "type": "Feature", "properties": { "camera_id": 58 }, "geometry": { "type": "Point", "coordinates": [ 1607473.875816660467535, -2162019.413791975006461 ] } },
{ "type": "Feature", "properties": { "camera_id": 59 }, "geometry": { "type": "Point", "coordinates": [ 1607473.875816660467535, -2165019.413791975006461 ] } },
{ "type": "Feature", "properties": { "camera_id": 60 }, "geometry": { "type": "Point", "coordinates": [ 1607473.875816660467535, -2165019.413791975006461 ] } },
{ "type": "Feature", "properties": { "camera_id": 61 }, "geometry": { "type": "Point", "coordinates": [ 1608473.875816660467535, -2161019.413791975006461 ] } },
{ "type": "Feature", "properties": { "camera_id": 62 }, "geometry": { "type": "Point", "coordinates": [ 1608473.875816660467535, -2161019.413791975006461 ] } },
{ "type": "Feature", "properties": { "camera_id": 63 }, "geometry": { "type": "Point", "coordinates": [ 1615473.875816660467535, -2163019.413791975006461 ] } },
{ "type": "Feature", "properties": { "camera_id": 64 }, "geometry": { "type": "Point", "coordinates": [ 1615473.875816660467535, -2163019.413791975006461 ] } }
]
}
