{
"type": "FeatureCollection",
"name": "poaching_area",
"crs": { "type": "name", "properties": { "name": "urn:ogc:def:crs:EPSG::3857" } },
"features": [
{ "type": "Feature", "properties": { "id": 1 }, "geometry": { "type": "MultiPolygon", "coordinates": [ [ [ [ 1607296.920329008484259, -2182737.536666947416961 ], [ 1600093.968543930212036, -2160376.134110286831856 ], [ 1633851.085865042870864, -2134036.982060375157744 ], [ 1627723.201510573271662, -2127479.07073366176337 ], [ 1611382.176565321162343, -2126619.016789174638689 ], [ 1616004.966516938293353, -2111783.086246774997562 ], [ 1703730.468854608014226, -2109740.458128617610782 ], [ 1742002.86938427737914, -2117803.463858183007687 ], [ 1746088.125620590057224, -2096732.142218252643943 ], [ 1766406.900059094186872, -2096947.155704374657944 ], [ 1762321.643822781741619, -2128984.165136513765901 ], [ 1731897.235536555293947, -2141992.48104687826708 ], [ 1652987.286129877669737, -2181017.428777975030243 ], [ 1607296.920329008484259, -2182737.536666947416961 ] ] ] ] } }
]
}
