{
  "type": "FeatureCollection",
  "features": [
    {
      "type": "Feature",
      "properties": {
        "vehicle_id": 0,
        "depot": 0
      },
      "geometry": {
        "type": "LineString",
        "coordinates": [
          [
            1612587.8774063976,
            -2156831.5530044525
          ],
          [
            1614673.8758166605,
            -2157019.413791975
          ],
          [
            1618584.9869277715,
            -2158130.5249030865
          ],
          [
            1621223.8758166607,
            -2156602.7471253085
          ],
          [
            1623073.8758166605,
            -2153719.413791975
          ],
          [
            1626973.8758166605,
            -2154019.413791975
          ],
          [
            1630073.8758166605,
            -2153319.413791975
          ],
          [
            1627973.8758166605,
            -2151019.413791975
          ],
          [
            1626973.8758166605,
            -2148644.413791975
          ],
          [
            1625173.8758166605,
            -2146319.413791975
          ],
          [
            1622704.6450474297,
            -2148404.0291765905
          ],
          [
            1620073.8758166605,
            -2152086.0804586415
          ],
          [
            1617655.6939984786,
            -2154837.5956101567
          ],
          [
            1612587.8774063976,
            -2156831.5530044525
          ]
        ]
      }
    },
    {
      "type": "Feature",
      "properties": {
        "vehicle_id": 1,
        "depot": 0
      },
      "geometry": {
        "type": "LineString",
        "coordinates": [
          [
            1612587.8774063976,
            -2156831.5530044525
          ],
          [
            1631598.8758166605,
            -2150894.413791975
          ],
          [
            1634348.8758166605,
            -2151144.413791975
          ],
          [
            1638223.8758166607,
            -2150436.0804586415
          ],
          [
            1635584.9869277715,
            -2148686.080458642
          ],
          [
            1632473.8758166605,
            -2148019.413791975
          ],
          [
            1631473.8758166605,
            -2144819.413791975
          ],
          [
            1629243.1065858912,
            -2141634.79840736
          ],
          [
            1628696.0980388827,
            -2138074.969347531
          ],
          [
            1624873.8758166605,
            -2141619.413791975
          ],
          [
            1627928.4212712059,
            -2144655.7774283383
          ],
          [
            1629584.9869277715,
            -2147686.080458642
          ],
          [
            1624273.8758166605,
            -2151019.413791975
          ],
          [
            1612587.8774063976,
            -2156831.5530044525
          ]
        ]
      }
    },
    {
      "type": "Feature",
      "properties": {
        "vehicle_id": 2,
        "depot": 0
      },
      "geometry": {
        "type": "LineString",
        "coordinates": [
          [
            1612587.8774063976,
            -2156831.5530044525
          ],
          [
            1605873.8758166605,
            -2165319.413791975
          ],
          [
            1605598.8758166605,
            -2170144.413791975
          ],
          [
            1610807.2091499937,
            -2172463.8582364195
          ],
          [
            1613473.8758166605,
            -2173019.413791975
          ],
          [
            1616273.8758166605,
            -2172519.413791975
          ],
          [
            1617973.8758166607,
            -2175519.413791975
          ],
          [
            1617655.6939984786,
            -2179837.5956101567
          ],
          [
            1617807.209149994,
            -2183102.7471253085
          ],
          [
            1620473.8758166607,
            -2177852.7471253085
          ],
          [
            1620616.7329595177,
            -2172947.9852205464
          ],
          [
            1618673.8758166605,
            -2166519.413791975
          ],
          [
            1616473.8758166605,
            -2164519.413791975
          ],
          [
            1612587.8774063976,
            -2156831.5530044525
          ]
        ]
      }
    },
    {
      "type": "Feature",
      "properties": {
        "vehicle_id": 3,
        "depot": 0
      },
      "geometry": {
        "type": "LineString",
        "coordinates": [
          [
            1612587.8774063976,
            -2156831.5530044525
          ],
          [
            1614973.8758166607,
            -2176852.7471253085
          ],
          [
            1614573.8758166605,
            -2180219.413791975
          ],
          [
            1613557.209149994,
            -2183352.7471253085
          ],
          [
            1616000.1916061342,
            -2186808.8874761853
          ],
          [
            1613473.8758166602,
            -2189723.117495679
          ],
          [
            1610297.4052284253,
            -2185960.5902625634
          ],
          [
            1607292.0576348423,
            -2184110.3228828837
          ],
          [
            1610348.8758166605,
            -2182144.413791975
          ],
          [
            1611473.8758166605,
            -2180019.413791975
          ],
          [
            1610723.8758166605,
            -2178019.413791975
          ],
          [
            1612029.431372216,
            -2175686.080458642
          ],
          [
            1611348.8758166605,
            -2167894.413791975
          ],
          [
            1612587.8774063976,
            -2156831.5530044525
          ]
        ]
      }
    },
    {
      "type": "Feature",
      "properties": {
        "vehicle_id": 4,
        "depot": 0
      },
      "geometry": {
        "type": "LineString",
        "coordinates": [
          [
            1612587.8774063976,
            -2156831.5530044525
          ],
          [
            1602223.8758166607,
            -2166352.7471253085
          ],
          [
            1604723.8758166605,
            -2168019.413791975
          ],
          [
            1602473.8758166605,
            -2170746.6865192475
          ],
          [
            1605348.8758166605,
            -2172769.413791975
          ],
          [
            1604557.209149994,
            -2174936.0804586415
          ],
          [
            1604331.0186738034,
            -2177305.128077689
          ],
          [
            1604807.2091499937,
            -2180352.7471253085
          ],
          [
            1607473.8758166605,
            -2181019.413791975
          ],
          [
            1607348.8758166605,
            -2178144.413791975
          ],
          [
            1608598.8758166605,
            -2175894.413791975
          ],
          [
            1608348.8758166605,
            -2173144.413791975
          ],
          [
            1608627.7219705065,
            -2169557.8753304365
          ],
          [
            1612587.8774063976,
            -2156831.5530044525
          ]
        ]
      }
    },
    {
      "type": "Feature",
      "properties": {
        "vehicle_id": 5,
        "depot": 0
      },
      "geometry": {
        "type": "LineString",
        "coordinates": [
          [
            1612587.8774063976,
            -2156831.5530044525
          ],
          [
            1614473.8758166605,
            -2153819.413791975
          ],
          [
            1616688.1615309461,
            -2150805.128077689
          ],
          [
            1621235.7805785653,
            -2144067.032839594
          ],
          [
            1618082.5714688343,
            -2147106.3703137143
          ],
          [
            1613140.5424833272,
            -2149495.604268166
          ],
          [
            1611140.5424833272,
            -2153936.0804586415
          ],
          [
            1608973.8758166605,
            -2163144.413791975
          ],
          [
            1608598.8758166605,
            -2166144.413791975
          ],
          [
            1611348.8758166605,
            -2165144.413791975
          ],
          [
            1611473.8758166605,
            -2161519.413791975
          ],
          [
            1613473.8758166605,
            -2159733.699506261
          ],
          [
            1612587.8774063976,
            -2156831.5530044525
          ]
        ]
      }
    },
    {
      "type": "Feature",
      "properties": {
        "vehicle_id": 6,
        "depot": 0
      },
      "geometry": {
        "type": "LineString",
        "coordinates": [
          [
            1612587.8774063976,
            -2156831.5530044525
          ],
          [
            1615473.8758166605,
            -2161733.699506261
          ],
          [
            1618928.4212712059,
            -2162837.5956101567
          ],
          [
            1621807.209149994,
            -2165936.0804586415
          ],
          [
            1623473.8758166607,
            -2163186.0804586415
          ],
          [
            1626616.7329595177,
            -2165090.8423634036
          ],
          [
            1626251.6535944382,
            -2168519.413791975
          ],
          [
            1622073.8758166605,
            -2169419.413791975
          ],
          [
            1618473.8758166605,
            -2170219.413791975
          ],
          [
            1615973.8758166605,
            -2168419.413791975
          ],
          [
            1613292.0576348423,
            -2169837.5956101567
          ],
          [
            1614188.1615309461,
            -2166019.413791975
          ],
          [
            1613473.8758166605,
            -2163305.128077689
          ],
          [
            1612587.8774063976,
            -2156831.5530044525
          ]
        ]
      }
    },
    {
      "type": "Feature",
      "properties": {
        "vehicle_id": 7,
        "depot": 0
      },
      "geometry": {
        "type": "LineString",
        "coordinates": [
          [
            1612587.8774063976,
            -2156831.5530044525
          ],
          [
            1616598.8758166605,
            -2159519.413791975
          ],
          [
            1620837.512180297,
            -2160564.8683374296
          ],
          [
            1623928.4212712059,
            -2159655.7774283383
          ],
          [
            1627089.260432045,
            -2161404.0291765905
          ],
          [
            1630411.3758166605,
            -2162206.913791975
          ],
          [
            1632807.2091499937,
            -2159486.0804586415
          ],
          [
            1631073.8758166605,
            -2156319.413791975
          ],
          [
            1627973.8758166605,
            -2157733.699506261
          ],
          [
            1624837.512180297,
            -2156473.9592465204
          ],
          [
            1609292.0576348423,
            -2151564.8683374296
          ],
          [
            1606273.8758166605,
            -2154219.413791975
          ],
          [
            1608584.9869277715,
            -2156686.080458642
          ],
          [
            1612587.8774063976,
            -2156831.5530044525
          ]
        ]
      }
    },
    {
      "type": "Feature",
      "properties": {
        "vehicle_id": 8,
        "depot": 0
      },
      "geometry": {
        "type": "LineString",
        "coordinates": [
          [
            1612587.8774063976,
            -2156831.5530044525
          ],
          [
            1611473.8758166605,
            -2157219.413791975
          ],
          [
            1606382.9667257515,
            -2158655.7774283383
          ],
          [
            1603696.0980388827,
            -2158686.080458642
          ],
          [
            1602655.6939984786,
            -2155928.504701066
          ],
          [
            1600110.2394530242,
            -2158473.9592465204
          ],
          [
            1601696.0980388827,
            -2161019.413791975
          ],
          [
            1600616.7329595177,
            -2163305.128077689
          ],
          [
            1603696.0980388827,
            -2162908.302680864
          ],
          [
            1606473.8758166605,
            -2162019.413791975
          ],
          [
            1609348.8758166605,
            -2159894.413791975
          ],
          [
            1612587.8774063976,
            -2156831.5530044525
          ]
        ]
      }
    },
    {
      "type": "Feature",
      "properties": {
        "vehicle_id": 9,
        "depot": 1
      },
      "geometry": {
        "type": "LineString",
        "coordinates": [
          [
            1649571.6997669148,
            -2152274.1834093174
          ],
          [
            1691407.2091499937,
            -2161152.747125308
          ],
          [
            1695473.8758166605,
            -2163969.413791975
          ],
          [
            1698737.0337113973,
            -2161861.5190551328
          ],
          [
            1701723.8758166605,
            -2159669.413791975
          ],
          [
            1703523.8758166605,
            -2164119.413791975
          ],
          [
            1710894.9284482393,
            -2165124.67694987
          ],
          [
            1713409.3596876282,
            -2174019.413791975
          ],
          [
            1710223.8758166605,
            -2170555.128077689
          ],
          [
            1705880.1258166605,
            -2168238.163791975
          ],
          [
            1700073.8758166605,
            -2168162.2709348323
          ],
          [
            1694973.8758166605,
            -2169250.1830227445
          ],
          [
            1690659.0610018456,
            -2166908.302680864
          ],
          [
            1649571.6997669148,
            -2152274.1834093174
          ]
        ]
      }
    },
    {
      "type": "Feature",
      "properties": {
        "vehicle_id": 10,
        "depot": 1
      },
      "geometry": {
        "type": "LineString",
        "coordinates": [
          [
            1649571.6997669148,
            -2152274.1834093174
          ],
          [
            1662473.8758166607,
            -2139061.0804586415
          ],
          [
            1665918.320261105,
            -2136352.7471253085
          ],
          [
            1670036.3758166605,
            -2134769.413791975
          ],
          [
            1675696.0980388825,
            -2130056.450829012
          ],
          [
            1675325.7276685121,
            -2124686.0804586415
          ],
          [
            1672362.7647055492,
            -2120130.5249030865
          ],
          [
            1666223.8758166605,
            -2120363.163791975
          ],
          [
            1665177.579520364,
            -2126686.0804586415
          ],
          [
            1669844.2461870308,
            -2125426.821199382
          ],
          [
            1670807.209149994,
            -2130067.032839594
          ],
          [
            1666473.8758166607,
            -2132162.2709348323
          ],
          [
            1657233.8758166605,
            -2137939.413791975
          ],
          [
            1649571.6997669148,
            -2152274.1834093174
          ]
        ]
      }
    },
    {
      "type": "Feature",
      "properties": {
        "vehicle_id": 11,
        "depot": 1
      },
      "geometry": {
        "type": "LineString",
        "coordinates": [
          [
            1649571.6997669148,
            -2152274.1834093174
          ],
          [
            1646831.0186738034,
            -2141090.8423634036
          ],
          [
            1645193.8758166605,
            -2129659.413791975
          ],
          [
            1646089.260432045,
            -2123365.567638129
          ],
          [
            1650140.5424833272,
            -2120602.7471253085
          ],
          [
            1649743.1065858912,
            -2126673.2599458215
          ],
          [
            1654473.8758166605,
            -2126519.413791975
          ],
          [
            1658223.8758166607,
            -2119644.413791975
          ],
          [
            1658049.633392418,
            -2114322.4440950053
          ],
          [
            1663500.9028436877,
            -2115370.7651433265
          ],
          [
            1661273.8758166605,
            -2122819.413791975
          ],
          [
            1662426.2567690415,
            -2130828.937601499
          ],
          [
            1659781.5681243527,
            -2134134.79840736
          ],
          [
            1649571.6997669148,
            -2152274.1834093174
          ]
        ]
      }
    },
    {
      "type": "Feature",
      "properties": {
        "vehicle_id": 12,
        "depot": 1
      },
      "geometry": {
        "type": "LineString",
        "coordinates": [
          [
            1649571.6997669148,
            -2152274.1834093174
          ],
          [
            1644973.8758166607,
            -2151019.413791975
          ],
          [
            1641407.2091499937,
            -2148152.747125308
          ],
          [
            1637973.8758166605,
            -2146819.413791975
          ],
          [
            1637616.7329595177,
            -2144305.128077689
          ],
          [
            1636837.512180297,
            -2141928.504701066
          ],
          [
            1636973.8758166605,
            -2138733.699506261
          ],
          [
            1637418.320261105,
            -2133019.413791975
          ],
          [
            1640928.4212712059,
            -2130383.0501556112
          ],
          [
            1639616.7329595177,
            -2136233.699506261
          ],
          [
            1640550.7988935835,
            -2143942.490715052
          ],
          [
            1644382.9667257515,
            -2147655.7774283383
          ],
          [
            1648673.8758166605,
            -2151019.413791975
          ],
          [
            1649571.6997669148,
            -2152274.1834093174
          ]
        ]
      }
    },
    {
      "type": "Feature",
      "properties": {
        "vehicle_id": 13,
        "depot": 1
      },
      "geometry": {
        "type": "LineString",
        "coordinates": [
          [
            1649571.6997669148,
            -2152274.1834093174
          ],
          [
            1649473.8758166605,
            -2155305.128077689
          ],
          [
            1649564.7849075696,
            -2158383.0501556112
          ],
          [
            1649012.337355122,
            -2162634.79840736
          ],
          [
            1648973.8758166605,
            -2165819.413791975
          ],
          [
            1648110.2394530242,
            -2169110.3228828837
          ],
          [
            1639423.8758166605,
            -2169419.413791975
          ],
          [
            1639616.7329595177,
            -2173686.080458642
          ],
          [
            1634428.4212712059,
            -2172746.6865192475
          ],
          [
            1629947.5600271868,
            -2171282.5716867116
          ],
          [
            1630842.2968692922,
            -2167019.413791975
          ],
          [
            1634521.4948642796,
            -2163828.937601499
          ],
          [
            1641858.4912012757,
            -2157634.79840736
          ],
          [
            1649571.6997669148,
            -2152274.1834093174
          ]
        ]
      }
    },
    {
      "type": "Feature",
      "properties": {
        "vehicle_id": 14,
        "depot": 1
      },
      "geometry": {
        "type": "LineString",
        "coordinates": [
          [
            1649571.6997669148,
            -2152274.1834093174
          ],
          [
            1647348.8758166605,
            -2153894.413791975
          ],
          [
            1644089.260432045,
            -2154404.0291765905
          ],
          [
            1641089.260432045,
            -2152404.0291765905
          ],
          [
            1639307.209149994,
            -2155519.413791975
          ],
          [
            1636655.6939984786,
            -2153746.6865192475
          ],
          [
            1633473.8758166605,
            -2154219.413791975
          ],
          [
            1635473.8758166607,
            -2157186.0804586415
          ],
          [
            1637918.320261105,
            -2159741.6360141975
          ],
          [
            1638767.9934637193,
            -2163725.296144916
          ],
          [
            1641786.3758166605,
            -2165894.413791975
          ],
          [
            1642826.816993131,
            -2161019.413791975
          ],
          [
            1646057.209149994,
            -2157269.413791975
          ],
          [
            1649571.6997669148,
            -2152274.1834093174
          ]
        ]
      }
    },
    {
      "type": "Feature",
      "properties": {
        "vehicle_id": 15,
        "depot": 1
      },
      "geometry": {
        "type": "LineString",
        "coordinates": [
          [
            1649571.6997669148,
            -2152274.1834093174
          ],
          [
            1652110.2394530242,
            -2167110.3228828837
          ],
          [
            1652251.6535944382,
            -2170519.413791975
          ],
          [
            1653312.5854940799,
            -2178761.349275846
          ],
          [
            1647473.8758166605,
            -2178201.231973793
          ],
          [
            1642512.337355122,
            -2178250.1830227445
          ],
          [
            1636473.8758166605,
            -2177057.8753304365
          ],
          [
            1630166.1835089682,
            -2176057.8753304365
          ],
          [
            1625759.590102375,
            -2178352.7471253085
          ],
          [
            1622382.9667257515,
            -2181473.9592465204
          ],
          [
            1622973.8758166607,
            -2175519.413791975
          ],
          [
            1625631.7705535025,
            -2172861.5190551328
          ],
          [
            1635323.8758166605,
            -2168169.413791975
          ],
          [
            1649571.6997669148,
            -2152274.1834093174
          ]
        ]
      }
    },
    {
      "type": "Feature",
      "properties": {
        "vehicle_id": 16,
        "depot": 1
      },
      "geometry": {
        "type": "LineString",
        "coordinates": [
          [
            1649571.6997669148,
            -2152274.1834093174
          ],
          [
            1650029.431372216,
            -2148463.8582364195
          ],
          [
            1649704.6450474297,
            -2144634.79840736
          ],
          [
            1651421.244237713,
            -2141282.5716867116
          ],
          [
            1652666.1835089682,
            -2137327.1060996675
          ],
          [
            1654650.346404896,
            -2131431.1784978574
          ],
          [
            1649107.2091499937,
            -2132652.747125308
          ],
          [
            1647064.7849075696,
            -2137428.504701066
          ],
          [
            1643378.6377214226,
            -2135114.6518872133
          ],
          [
            1641415.052287249,
            -2139842.94320374
          ],
          [
            1643557.209149994,
            -2142852.7471253085
          ],
          [
            1646110.2394530242,
            -2144564.8683374296
          ],
          [
            1647362.7647055492,
            -2147686.080458642
          ],
          [
            1649571.6997669148,
            -2152274.1834093174
          ]
        ]
      }
    },
    {
      "type": "Feature",
      "properties": {
        "vehicle_id": 17,
        "depot": 1
      },
      "geometry": {
        "type": "LineString",
        "coordinates": [
          [
            1649571.6997669148,
            -2152274.1834093174
          ],
          [
            1651140.542483327,
            -2153130.5249030865
          ],
          [
            1655545.304388089,
            -2152447.9852205464
          ],
          [
            1660411.3758166605,
            -2164738.163791975
          ],
          [
            1656955.3572981418,
            -2168167.561940123
          ],
          [
            1656853.186161488,
            -2173364.241378182
          ],
          [
            1651894.9284482393,
            -2174703.6243182905
          ],
          [
            1647973.8758166605,
            -2172519.413791975
          ],
          [
            1643973.8758166605,
            -2173519.413791975
          ],
          [
            1643873.8758166605,
            -2169619.413791975
          ],
          [
            1645807.2091499937,
            -2166908.302680864
          ],
          [
            1645140.5424833272,
            -2163769.413791975
          ],
          [
            1646928.4212712059,
            -2160383.0501556112
          ],
          [
            1649571.6997669148,
            -2152274.1834093174
          ]
        ]
      }
    },
    {
      "type": "Feature",
      "properties": {
        "vehicle_id": 18,
        "depot": 1
      },
      "geometry": {
        "type": "LineString",
        "coordinates": [
          [
            1649571.6997669148,
            -2152274.1834093174
          ],
          [
            1634473.8758166605,
            -2145219.413791975
          ],
          [
            1633110.2394530242,
            -2141928.504701066
          ],
          [
            1632973.8758166607,
            -2139019.413791975
          ],
          [
            1633473.8758166605,
            -2135669.413791975
          ],
          [
            1633012.337355122,
            -2131057.8753304365
          ],
          [
            1636715.2551270053,
            -2127122.8620678373
          ],
          [
            1640840.542483327,
            -2124552.747125308
          ],
          [
            1642570.6500102088,
            -2119406.5105661685
          ],
          [
            1646988.1615309461,
            -2115705.128077689
          ],
          [
            1652933.33527612,
            -2115668.0624406235
          ],
          [
            1654701.1485439332,
            -2122519.413791975
          ],
          [
            1659223.8758166607,
            -2127352.7471253085
          ],
          [
            1649571.6997669148,
            -2152274.1834093174
          ]
        ]
      }
    },
    {
      "type": "Feature",
      "properties": {
        "vehicle_id": 19,
        "depot": 1
      },
      "geometry": {
        "type": "LineString",
        "coordinates": [
          [
            1649571.6997669148,
            -2152274.1834093174
          ],
          [
            1660473.8758166605,
            -2146372.354968446
          ],
          [
            1663865.1801644864,
            -2143932.4572702358
          ],
          [
            1670009.5901023748,
            -2144305.128077689
          ],
          [
            1674938.1615309461,
            -2140876.5566491177
          ],
          [
            1682840.542483327,
            -2131952.747125308
          ],
          [
            1677577.3240925225,
            -2135088.3793092165
          ],
          [
            1673473.8758166605,
            -2135019.413791975
          ],
          [
            1670973.8758166605,
            -2138908.302680864
          ],
          [
            1667084.9869277715,
            -2140686.080458642
          ],
          [
            1657973.8758166605,
            -2142655.7774283383
          ],
          [
            1654348.8758166605,
            -2144394.413791975
          ],
          [
            1652935.414278199,
            -2147634.79840736
          ],
          [
            1649571.6997669148,
            -2152274.1834093174
          ]
        ]
      }
    },
    {
      "type": "Feature",
      "properties": {
        "vehicle_id": 20,
        "depot": 1
      },
      "geometry": {
        "type": "LineString",
        "coordinates": [
          [
            1649571.6997669148,
            -2152274.1834093174
          ],
          [
            1653012.337355122,
            -2155865.567638129
          ],
          [
            1652873.8758166605,
            -2159419.413791975
          ],
          [
            1652223.8758166607,
            -2163686.0804586415
          ],
          [
            1655532.6993460723,
            -2163019.413791975
          ],
          [
            1657579.1389745553,
            -2159440.466423554
          ],
          [
            1656858.4912012757,
            -2155788.644561206
          ],
          [
            1660140.542483327,
            -2154852.7471253085
          ],
          [
            1664860.9725908542,
            -2154309.7363726203
          ],
          [
            1665116.7329595177,
            -2148840.8423634036
          ],
          [
            1659973.8758166605,
            -2150574.969347531
          ],
          [
            1656673.8758166605,
            -2148152.747125308
          ],
          [
            1652807.2091499937,
            -2150797.191569753
          ],
          [
            1649571.6997669148,
            -2152274.1834093174
          ]
        ]
      }
    },
    {
      "type": "Feature",
      "properties": {
        "vehicle_id": 21,
        "depot": 1
      },
      "geometry": {
        "type": "LineString",
        "coordinates": [
          [
            1649571.6997669148,
            -2152274.1834093174
          ],
          [
            1663419.8217626065,
            -2159992.3867649483
          ],
          [
            1695500.9028436877,
            -2157073.467846029
          ],
          [
            1701856.228757837,
            -2154872.354968446
          ],
          [
            1722377.101623112,
            -2147825.8654048783
          ],
          [
            1725166.1835089682,
            -2144096.336868898
          ],
          [
            1688779.431372216,
            -2130602.7471253085
          ],
          [
            1685348.8758166607,
            -2126352.7471253085
          ],
          [
            1690798.200140985,
            -2124695.0894676507
          ],
          [
            1686390.542483327,
            -2120352.7471253085
          ],
          [
            1679273.8758166605,
            -2119719.413791975
          ],
          [
            1681110.2394530242,
            -2123473.9592465204
          ],
          [
            1680299.9627731822,
            -2127715.065965888
          ],
          [
            1649571.6997669148,
            -2152274.1834093174
          ]
        ]
      }
    },
    {
      "type": "Feature",
      "properties": {
        "vehicle_id": 22,
        "depot": 2
      },
      "geometry": {
        "type": "LineString",
        "coordinates": [
          [
            1772467.0596357184,
            -2177570.1449823114
          ],
          [
            1763116.7329595177,
            -2178555.128077689
          ],
          [
            1722579.1389745553,
            -2178072.0453709224
          ],
          [
            1716014.416357201,
            -2178397.7921703532
          ],
          [
            1720515.5424833272,
            -2173394.413791975
          ],
          [
            1717837.512180297,
            -2170201.231973793
          ],
          [
            1714473.8758166605,
            -2167519.413791975
          ],
          [
            1717928.4212712059,
            -2164883.0501556112
          ],
          [
            1717826.816993131,
            -2160490.0020272695
          ],
          [
            1722382.9667257515,
            -2162792.141064702
          ],
          [
            1726826.816993131,
            -2164490.0020272695
          ],
          [
            1722517.3540775299,
            -2167932.4572702358
          ],
          [
            1726095.4974382822,
            -2172127.521900083
          ],
          [
            1772467.0596357184,
            -2177570.1449823114
          ]
        ]
      }
    },
    {
      "type": "Feature",
      "properties": {
        "vehicle_id": 23,
        "depot": 2
      },
      "geometry": {
        "type": "LineString",
        "coordinates": [
          [
            1772467.0596357184,
            -2177570.1449823114
          ],
          [
            1727283.3996261845,
            -2152971.794744356
          ],
          [
            1722564.7849075696,
            -2152928.504701066
          ],
          [
            1717667.4242037574,
            -2151116.187985523
          ],
          [
            1714436.8387796234,
            -2156241.636014197
          ],
          [
            1710081.0186738034,
            -2157233.699506261
          ],
          [
            1705908.658425356,
            -2158628.109444149
          ],
          [
            1708297.4052284253,
            -2162254.707909622
          ],
          [
            1713631.7705535025,
            -2161861.5190551328
          ],
          [
            1719029.431372216,
            -2156130.5249030865
          ],
          [
            1722161.3758166605,
            -2158644.413791975
          ],
          [
            1725251.6535944382,
            -2157408.302680864
          ],
          [
            1729577.3240925225,
            -2158226.310343699
          ],
          [
            1772467.0596357184,
            -2177570.1449823114
          ]
        ]
      }
    },
    {
      "type": "Feature",
      "properties": {
        "vehicle_id": 24,
        "depot": 2
      },
      "geometry": {
        "type": "LineString",
        "coordinates": [
          [
            1772467.0596357184,
            -2177570.1449823114
          ],
          [
            1760393.8758166605,
            -2173819.413791975
          ],
          [
            1733399.8017425863,
            -2155056.450829012
          ],
          [
            1731423.8758166605,
            -2150669.413791975
          ],
          [
            1728223.8758166605,
            -2147969.413791975
          ],
          [
            1730652.447245232,
            -2143197.9852205464
          ],
          [
            1735584.9869277715,
            -2140824.969347531
          ],
          [
            1734473.8758166605,
            -2147019.413791975
          ],
          [
            1737183.5532360154,
            -2151019.413791975
          ],
          [
            1766515.5424833272,
            -2166102.7471253085
          ],
          [
            1769251.6535944382,
            -2170723.117495679
          ],
          [
            1775439.3930580397,
            -2175536.6551712854
          ],
          [
            1779214.6165574011,
            -2179019.413791975
          ],
          [
            1772467.0596357184,
            -2177570.1449823114
          ]
        ]
      }
    },
    {
      "type": "Feature",
      "properties": {
        "vehicle_id": 25,
        "depot": 2
      },
      "geometry": {
        "type": "LineString",
        "coordinates": [
          [
            1772467.0596357184,
            -2177570.1449823114
          ],
          [
            1777045.304388089,
            -2183983.699506261
          ],
          [
            1786521.4948642796,
            -2184781.31855388
          ],
          [
            1790473.8758166605,
            -2185969.413791975
          ],
          [
            1798816.7329595175,
            -2192476.5566491177
          ],
          [
            1808790.948987392,
            -2191019.413791975
          ],
          [
            1816446.0980388827,
            -2193797.191569753
          ],
          [
            1823792.0576348423,
            -2195383.0501556112
          ],
          [
            1829429.431372216,
            -2192352.7471253085
          ],
          [
            1826110.2394530242,
            -2186746.6865192475
          ],
          [
            1820918.320261105,
            -2189436.080458642
          ],
          [
            1814992.394335179,
            -2188908.302680864
          ],
          [
            1803029.431372216,
            -2188241.6360141975
          ],
          [
            1772467.0596357184,
            -2177570.1449823114
          ]
        ]
      }
    },
    {
      "type": "Feature",
      "properties": {
        "vehicle_id": 26,
        "depot": 2
      },
      "geometry": {
        "type": "LineString",
        "coordinates": [
          [
            1772467.0596357184,
            -2177570.1449823114
          ],
          [
            1768973.8758166605,
            -2176901.7667331514
          ],
          [
            1765235.7805785653,
            -2173638.4614110226
          ],
          [
            1762997.6853404702,
            -2169400.3661729274
          ],
          [
            1760990.0048489186,
            -2164890.3815339105
          ],
          [
            1756991.1171959708,
            -2169502.1724126646
          ],
          [
            1755060.0827132121,
            -2174295.2758609406
          ],
          [
            1757041.443384228,
            -2180073.467846029
          ],
          [
            1759988.1615309461,
            -2184047.9852205464
          ],
          [
            1762188.1615309461,
            -2187912.2709348323
          ],
          [
            1767589.260432045,
            -2188711.721484283
          ],
          [
            1766510.9128536973,
            -2183204.59897716
          ],
          [
            1773256.4845123126,
            -2179715.065965888
          ],
          [
            1772467.0596357184,
            -2177570.1449823114
          ]
        ]
      }
    },
    {
      "type": "Feature",
      "properties": {
        "vehicle_id": 27,
        "depot": 2
      },
      "geometry": {
        "type": "LineString",
        "coordinates": [
          [
            1772467.0596357184,
            -2177570.1449823114
          ],
          [
            1787436.8387796234,
            -2170019.413791975
          ],
          [
            1791973.8758166605,
            -2172019.413791975
          ],
          [
            1795161.3758166605,
            -2170081.913791975
          ],
          [
            1799473.8758166605,
            -2170842.94320374
          ],
          [
            1811307.209149994,
            -2179138.4614110226
          ],
          [
            1817862.7647055492,
            -2183436.080458642
          ],
          [
            1812399.8017425863,
            -2184834.22860679
          ],
          [
            1807312.5854940799,
            -2184600.0589532657
          ],
          [
            1803680.7723683845,
            -2180984.9310333543
          ],
          [
            1791223.8758166605,
            -2177519.413791975
          ],
          [
            1787973.8758166605,
            -2174655.7774283383
          ],
          [
            1783755.1258166605,
            -2176456.913791975
          ],
          [
            1772467.0596357184,
            -2177570.1449823114
          ]
        ]
      }
    },
    {
      "type": "Feature",
      "properties": {
        "vehicle_id": 28,
        "depot": 2
      },
      "geometry": {
        "type": "LineString",
        "coordinates": [
          [
            1772467.0596357184,
            -2177570.1449823114
          ],
          [
            1771052.8231850816,
            -2183177.308528817
          ],
          [
            1772362.7647055492,
            -2186741.6360141975
          ],
          [
            1772789.6652903447,
            -2190440.466423554
          ],
          [
            1777630.1258166605,
            -2189769.413791975
          ],
          [
            1782584.9869277715,
            -2189074.969347531
          ],
          [
            1788079.936422721,
            -2190898.2016707626
          ],
          [
            1793443.5727863573,
            -2190898.2016707626
          ],
          [
            1797430.3975557908,
            -2187106.3703137143
          ],
          [
            1798765.5424833272,
            -2182644.413791975
          ],
          [
            1793723.8758166605,
            -2183669.413791975
          ],
          [
            1788273.8758166605,
            -2180499.413791975
          ],
          [
            1782513.8758166605,
            -2182779.413791975
          ],
          [
            1772467.0596357184,
            -2177570.1449823114
          ]
        ]
      }
    },
    {
      "type": "Feature",
      "properties": {
        "vehicle_id": 29,
        "depot": 3
      },
      "geometry": {
        "type": "LineString",
        "coordinates": [
          [
            1832224.9283719237,
            -2161286.5097996956
          ],
          [
            1832057.209149994,
            -2157644.413791975
          ],
          [
            1829273.8758166605,
            -2153919.413791975
          ],
          [
            1823122.5244653092,
            -2156424.8191973804
          ],
          [
            1815593.8758166605,
            -2158459.413791975
          ],
          [
            1810577.3240925225,
            -2160536.6551712854
          ],
          [
            1805140.5424833272,
            -2161102.7471253085
          ],
          [
            1800126.049729704,
            -2163106.3703137143
          ],
          [
            1794640.542483327,
            -2165019.413791975
          ],
          [
            1790759.590102375,
            -2167067.032839594
          ],
          [
            1797973.8758166605,
            -2167019.413791975
          ],
          [
            1802616.7329595177,
            -2167209.889982451
          ],
          [
            1806723.8758166605,
            -2164969.413791975
          ],
          [
            1832224.9283719237,
            -2161286.5097996956
          ]
        ]
      }
    },
    {
      "type": "Feature",
      "properties": {
        "vehicle_id": 30,
        "depot": 3
      },
      "geometry": {
        "type": "LineString",
        "coordinates": [
          [
            1832224.9283719237,
            -2161286.5097996956
          ],
          [
            1825286.3758166605,
            -2166894.413791975
          ],
          [
            1822209.1699343077,
            -2172225.296144916
          ],
          [
            1816773.8758166605,
            -2175144.413791975
          ],
          [
            1811473.8758166605,
            -2172519.413791975
          ],
          [
            1806577.3240925225,
            -2175846.9999988717
          ],
          [
            1800213.006251443,
            -2177628.109444149
          ],
          [
            1794842.2968692922,
            -2179598.361160396
          ],
          [
            1794751.6535944382,
            -2175297.191569753
          ],
          [
            1798407.2091499937,
            -2174286.0804586415
          ],
          [
            1803337.512180297,
            -2172473.9592465204
          ],
          [
            1807283.3996261845,
            -2169876.5566491177
          ],
          [
            1810792.0576348423,
            -2166428.504701066
          ],
          [
            1832224.9283719237,
            -2161286.5097996956
          ]
        ]
      }
    },
    {
      "type": "Feature",
      "properties": {
        "vehicle_id": 31,
        "depot": 3
      },
      "geometry": {
        "type": "LineString",
        "coordinates": [
          [
            1832224.9283719237,
            -2161286.5097996956
          ],
          [
            1856622.0239648086,
            -2150019.413791975
          ],
          [
            1864673.8758166605,
            -2145669.413791975
          ],
          [
            1860025.5999545916,
            -2146812.517240251
          ],
          [
            1840911.3758166605,
            -2152613.163791975
          ],
          [
            1835944.4640519547,
            -2154048.825556681
          ],
          [
            1818723.8758166605,
            -2160819.413791975
          ],
          [
            1815019.330362115,
            -2164155.7774283383
          ],
          [
            1814923.8758166605,
            -2168919.413791975
          ],
          [
            1818950.066292851,
            -2168447.9852205464
          ],
          [
            1820532.6993460723,
            -2164666.4726155046
          ],
          [
            1823421.244237713,
            -2161808.8874761853
          ],
          [
            1827740.542483327,
            -2160686.0804586415
          ],
          [
            1832224.9283719237,
            -2161286.5097996956
          ]
        ]
      }
    }
  ]
}