{
"type": "FeatureCollection",
"name": "thermal_cameras",
"crs": { "type": "name", "properties": { "name": "urn:ogc:def:crs:EPSG::3857" } },
"features": [
{ "type": "Feature", "properties": { "camera_id": 1 }, "geometry": { "type": "Point", "coordinates": [ 1691473.875816660467535, -2163019.413791975006461 ] } },
{ "type": "Feature", "properties": { "camera_id": 2 }, "geometry": { "type": "Point", "coordinates": [ 1690473.875816660467535, -2164019.413791975006461 ] } },
{ "type": "Feature", "properties": { "camera_id": 3 }, "geometry": { "type": "Point", "coordinates": [ 1689473.875816660467535, -2165019.413791975006461 ] } },
{ "type": "Feature", "properties": { "camera_id": 4 }, "geometry": { "type": "Point", "coordinates": [ 1691473.875816660467535, -2164019.413791975006461 ] } },
{ "type": "Feature", "properties": { "camera_id": 5 }, "geometry": { "type": "Point", "coordinates": [ 1692473.875816660467535, -2163019.413791975006461 ] } },
{ "type": "Feature", "properties": { "camera_id": 6 }, "geometry": { "type": "Point", "coordinates": [ 1690473.875816660467535, -2165019.413791975006461 ] } },
{ "type": "Feature", "properties": { "camera_id": 7 }, "geometry": { "type": "Point", "coordinates": [ 1693473.875816660467535, -2162019.413791975006461 ] } },
{ "type": "Feature", "properties": { "camera_id": 8 }, "geometry": { "type": "Point", "coordinates": [ 1689473.875816660467535, -2166019.413791975006461 ] } },
{ "type": "Feature", "properties": { "camera_id": 9 }, "geometry": { "type": "Point", "coordinates": [ 1692473.875816660467535, -2164019.413791975006461 ] } },
{ "type": "Feature", "properties": { "camera_id": 10 }, "geometry": { "type": "Point", "coordinates": [ 1688473.875816660467535, -2166019.413791975006461 ] } },
{ "type": "Feature", "properties": { "camera_id": 11 }, "geometry": { "type": "Point", "coordinates": [ 1691473.875816660467535, -2165019.413791975006461 ] } },
{ "type": "Feature", "properties": { "camera_id": 12 }, "geometry": { "type": "Point", "coordinates": [ 1693473.875816660467535, -2163019.413791975006461 ] } },
{ "type": "Feature", "properties": { "camera_id": 13 }, "geometry": { "type": "Point", "coordinates": [ 1690473.875816660467535, -2166019.413791975006461 ] } },
{ "type": "Feature", "properties": { "camera_id": 14 }, "geometry": { "type": "Point", "coordinates": [ 1694473.875816660467535, -2162019.413791975006461 ] } },
{ "type": "Feature", "properties": { "camera_id": 15 }, "geometry": { "type": "Point", "coordinates": [ 1692473.875816660467535, -2165019.413791975006461 ] } },
{ "type": "Feature", "properties": { "camera_id": 16 }, "geometry": { "type": "Point", "coordinates": [ 1693473.875816660467535, -2164019.413791975006461 ] } },
{ "type": "Feature", "properties": { "camera_id": 17 }, "geometry": { "type": "Point", "coordinates": [ 1689473.875816660467535, -2167019.413791975006461 ] } },
{ "type": "Feature", "properties": { "camera_id": 18 }, "geometry": { "type": "Point", "coordinates": [ 1691473.875816660467535, -2166019.413791975006461 ] } },
{ "type": "Feature", "properties": { "camera_id": 19 }, "geometry": { "type": "Point", "coordinates": [ 1688473.875816660467535, -2167019.413791975006461 ] } },
{ "type": "Feature", "properties": { "camera_id": 20 }, "geometry": { "type": "Point", "coordinates": [ 1694473.875816660467535, -2163019.413791975006461 ] } },
{ "type": "Feature", "properties": { "camera_id": 21 }, "geometry": { "type": "Point", "coordinates": [ 1690473.875816660467535, -2167019.413791975006461 ] } },
{ "type": "Feature", "properties": { "camera_id": 22 }, "geometry": { "type": "Point", "coordinates": [ 1696473.875816660467535, -2161019.413791975006461 ] } },
{ "type": "Feature", "properties": { "camera_id": 23 }, "geometry": { "type": "Point", "coordinates": [ 1694473.875816660467535, -2164019.413791975006461 ] } },
{ "type": "Feature", "properties": { "camera_id": 24 }, "geometry": { "type": "Point", "coordinates": [ 1692473.875816660467535, -2166019.413791975006461 ] } },
{ "type": "Feature", "properties": { "camera_id": 25 }, "geometry": { "type": "Point", "coordinates": [ 1693473.875816660467535, -2165019.413791975006461 ] } },
{ "type": "Feature", "properties": { "camera_id": 26 }, "geometry": { "type": "Point", "coordinates": [ 1695473.875816660467535, -2162019.413791975006461 ] } },
{ "type": "Feature", "properties": { "camera_id": 27 }, "geometry": { "type": "Point", "coordinates": [ 1698473.875816660467535, -2160019.413791975006461 ] } },
{ "type": "Feature", "properties": { "camera_id": 28 }, "geometry": { "type": "Point", "coordinates": [ 1687473.875816660467535, -2168019.413791975006461 ] } },
{ "type": "Feature", "properties": { "camera_id": 29 }, "geometry": { "type": "Point", "coordinates": [ 1691473.875816660467535, -2167019.413791975006461 ] } },
{ "type": "Feature", "properties": { "camera_id": 30 }, "geometry": { "type": "Point", "coordinates": [ 1689473.875816660467535, -2168019.413791975006461 ] } },
{ "type": "Feature", "properties": { "camera_id": 31 }, "geometry": { "type": "Point", "coordinates": [ 1688473.875816660467535, -2168019.413791975006461 ] } },
{ "type": "Feature", "properties": { "camera_id": 32 }, "geometry": { "type": "Point", "coordinates": [ 1697473.875816660467535, -2161019.413791975006461 ] } },
{ "type": "Feature", "properties": { "camera_id": 33 }, "geometry": { "type": "Point", "coordinates": [ 1699473.875816660467535, -2160019.413791975006461 ] } },
{ "type": "Feature", "properties": { "camera_id": 34 }, "geometry": { "type": "Point", "coordinates": [ 1695473.875816660467535, -2163019.413791975006461 ] } },
{ "type": "Feature", "properties": { "camera_id": 35 }, "geometry": { "type": "Point", "coordinates": [ 1694473.875816660467535, -2165019.413791975006461 ] } },
{ "type": "Feature", "properties": { "camera_id": 36 }, "geometry": { "type": "Point", "coordinates": [ 1690473.875816660467535, -2168019.413791975006461 ] } },
{ "type": "Feature", "properties": { "camera_id": 37 }, "geometry": { "type": "Point", "coordinates": [ 1696473.875816660467535, -2162019.413791975006461 ] } },
{ "type": "Feature", "properties": { "camera_id": 38 }, "geometry": { "type": "Point", "coordinates": [ 1701473.875816660467535, -2159019.413791975006461 ] } },
{ "type": "Feature", "properties": { "camera_id": 39 }, "geometry": { "type": "Point", "coordinates": [ 1693473.875816660467535, -2166019.413791975006461 ] } },
{ "type": "Feature", "properties": { "camera_id": 40 }, "geometry": { "type": "Point", "coordinates": [ 1692473.875816660467535, -2167019.413791975006461 ] } },
{ "type": "Feature", "properties": { "camera_id": 41 }, "geometry": { "type": "Point", "coordinates": [ 1698473.875816660467535, -2161019.413791975006461 ] } },
{ "type": "Feature", "properties": { "camera_id": 42 }, "geometry": { "type": "Point", "coordinates": [ 1700473.875816660467535, -2160019.413791975006461 ] } }
]
}
